start=new Date('2023-03-28T00:00:00.000Z').valueOf();
sats=[{"MEAN_ELEMENT_THEORY":"SGP4","OBJECT_NAME":"STARLINK-1992","GP_ID":"228990669","EPHEMERIS_TYPE":"0","DECAY_DATE":null,"TLE_LINE2":"2 47632  53.0531 135.1397 0002319  64.9459 295.1770 15.06406632118848","REF_FRAME":"TEME","OBJECT_TYPE":"PAYLOAD","OBJECT_ID":"2021-012N","BSTAR":"0.00130500000000","TLE_LINE1":"1 47632U 21012N   23086.86995762  .00019214  00000-0  13050-2 0  9997","PERIOD":"95.592","APOAPSIS":"548.799","MEAN_MOTION_DOT":"0.00019214","ARG_OF_PERICENTER":"64.9459","COUNTRY_CODE":"US","MEAN_ANOMALY":"295.1770","ECCENTRICITY":"0.00023190","ELEMENT_SET_NO":"999","CENTER_NAME":"EARTH","RCS_SIZE":"LARGE","INCLINATION":"53.0531","SEMIMAJOR_AXIS":"6925.328","SITE":"AFETR","RA_OF_ASC_NODE":"135.1397","MEAN_MOTION_DDOT":"0.0000000000000","CLASSIFICATION_TYPE":"U","EPOCH":"2023-03-27T20:52:44.338368","PERIAPSIS":"545.587","REV_AT_EPOCH":"11884","NORAD_CAT_ID":"47632","TIME_SYSTEM":"UTC","FILE":"3872915","MEAN_MOTION":"15.06406632","LAUNCH_DATE":"2021-02-16"},{"MEAN_MOTION_DDOT":"0.0000000000000","CLASSIFICATION_TYPE":"U","EPOCH":"2023-03-27T16:33:19.320480","PERIAPSIS":"546.496","REV_AT_EPOCH":"11752","NORAD_CAT_ID":"47633","TIME_SYSTEM":"UTC","FILE":"3872915","LAUNCH_DATE":"2021-02-16","MEAN_MOTION":"15.06390912","MEAN_MOTION_DOT":"0.00026911","ARG_OF_PERICENTER":"73.7958","MEAN_ANOMALY":"286.3149","COUNTRY_CODE":"US","ELEMENT_SET_NO":"999","ECCENTRICITY":"0.00010770","RCS_SIZE":"LARGE","INCLINATION":"53.0521","CENTER_NAME":"EARTH","SEMIMAJOR_AXIS":"6925.376","RA_OF_ASC_NODE":"230.9779","SITE":"AFETR","OBJECT_ID":"2021-012P","OBJECT_TYPE":"PAYLOAD","BSTAR":"0.00181910000000","REF_FRAME":"TEME","TLE_LINE1":"1 47633U 21012P   23086.68980695  .00026911  00000-0  18191-2 0  9990","PERIOD":"95.593","APOAPSIS":"547.987","MEAN_ELEMENT_THEORY":"SGP4","EPHEMERIS_TYPE":"0","GP_ID":"228990919","OBJECT_NAME":"STARLINK-2009","DECAY_DATE":null,"TLE_LINE2":"2 47633  53.0521 230.9779 0001077  73.7958 286.3149 15.06390912117527"},{"CENTER_NAME":"EARTH","RCS_SIZE":"LARGE","INCLINATION":"53.0521","SITE":"AFETR","RA_OF_ASC_NODE":"231.0606","SEMIMAJOR_AXIS":"6925.248","ARG_OF_PERICENTER":"45.3863","MEAN_MOTION_DOT":"0.00032442","ECCENTRICITY":"0.00016270","ELEMENT_SET_NO":"999","COUNTRY_CODE":"US","MEAN_ANOMALY":"314.7259","FILE":"3872915","TIME_SYSTEM":"UTC","NORAD_CAT_ID":"47634","MEAN_MOTION":"15.06432847","LAUNCH_DATE":"2021-02-16","CLASSIFICATION_TYPE":"U","MEAN_MOTION_DDOT":"0.0000000000000","REV_AT_EPOCH":"11749","EPOCH":"2023-03-27T15:57:34.704000","PERIAPSIS":"545.986","TLE_LINE2":"2 47634  53.0521 231.0606 0001627  45.3863 314.7259 15.06432847117498","DECAY_DATE":null,"MEAN_ELEMENT_THEORY":"SGP4","OBJECT_NAME":"STARLINK-2010","GP_ID":"228992170","EPHEMERIS_TYPE":"0","PERIOD":"95.590","APOAPSIS":"548.240","REF_FRAME":"TEME","OBJECT_TYPE":"PAYLOAD","OBJECT_ID":"2021-012Q","BSTAR":"0.00218490000000","TLE_LINE1":"1 47634U 21012Q   23086.66498500  .00032442  00000-0  21849-2 0  9998"},{"DECAY_DATE":null,"TLE_LINE2":"2 47635  53.0520 135.3500 0001426  74.8322 285.2824 15.06409045118856","MEAN_ELEMENT_THEORY":"SGP4","EPHEMERIS_TYPE":"0","GP_ID":"228991921","OBJECT_NAME":"STARLINK-2012","APOAPSIS":"548.173","PERIOD":"95.592","BSTAR":"0.00161690000000","OBJECT_TYPE":"PAYLOAD","OBJECT_ID":"2021-012R","REF_FRAME":"TEME","TLE_LINE1":"1 47635U 21012R   23086.82296735  .00023890  00000-0  16169-2 0  9999","INCLINATION":"53.0520","RCS_SIZE":"LARGE","CENTER_NAME":"EARTH","SEMIMAJOR_AXIS":"6925.321","RA_OF_ASC_NODE":"135.3500","SITE":"AFETR","MEAN_MOTION_DOT":"0.00023890","ARG_OF_PERICENTER":"74.8322","MEAN_ANOMALY":"285.2824","COUNTRY_CODE":"US","ELEMENT_SET_NO":"999","ECCENTRICITY":"0.00014260","TIME_SYSTEM":"UTC","NORAD_CAT_ID":"47635","FILE":"3872915","LAUNCH_DATE":"2021-02-16","MEAN_MOTION":"15.06409045","MEAN_MOTION_DDOT":"0.0000000000000","CLASSIFICATION_TYPE":"U","PERIAPSIS":"546.198","EPOCH":"2023-03-27T19:45:04.379040","REV_AT_EPOCH":"11885"},{"FILE":"3872915","NORAD_CAT_ID":"47636","TIME_SYSTEM":"UTC","MEAN_MOTION":"15.06443901","LAUNCH_DATE":"2021-02-16","CLASSIFICATION_TYPE":"U","MEAN_MOTION_DDOT":"0.0000000000000","REV_AT_EPOCH":"11777","PERIAPSIS":"546.173","EPOCH":"2023-03-27T15:39:01.297440","CENTER_NAME":"EARTH","INCLINATION":"53.0514","RCS_SIZE":"LARGE","SITE":"AFETR","RA_OF_ASC_NODE":"211.1185","SEMIMAJOR_AXIS":"6925.214","ARG_OF_PERICENTER":"68.3415","MEAN_MOTION_DOT":"0.00037137","ECCENTRICITY":"0.00013080","ELEMENT_SET_NO":"999","COUNTRY_CODE":"US","MEAN_ANOMALY":"291.7713","PERIOD":"95.589","APOAPSIS":"547.985","REF_FRAME":"TEME","OBJECT_TYPE":"PAYLOAD","OBJECT_ID":"2021-012S","BSTAR":"0.00249600000000","TLE_LINE1":"1 47636U 21012S   23086.65209835  .00037137  00000-0  24960-2 0  9993","TLE_LINE2":"2 47636  53.0514 211.1185 0001308  68.3415 291.7713 15.06443901117770","DECAY_DATE":null,"MEAN_ELEMENT_THEORY":"SGP4","OBJECT_NAME":"STARLINK-2013","GP_ID":"228991169","EPHEMERIS_TYPE":"0"},{"MEAN_MOTION_DDOT":"0.0000000000000","CLASSIFICATION_TYPE":"U","PERIAPSIS":"546.252","EPOCH":"2023-03-27T14:56:31.753536","REV_AT_EPOCH":"11778","NORAD_CAT_ID":"47637","TIME_SYSTEM":"UTC","FILE":"3872915","LAUNCH_DATE":"2021-02-16","MEAN_MOTION":"15.06421760","MEAN_MOTION_DOT":"0.00033280","ARG_OF_PERICENTER":"67.9656","MEAN_ANOMALY":"292.1470","COUNTRY_CODE":"US","ELEMENT_SET_NO":"999","ECCENTRICITY":"0.00012920","RCS_SIZE":"LARGE","INCLINATION":"53.0529","CENTER_NAME":"EARTH","SEMIMAJOR_AXIS":"6925.282","RA_OF_ASC_NODE":"211.2508","SITE":"AFETR","OBJECT_ID":"2021-012T","OBJECT_TYPE":"PAYLOAD","BSTAR":"0.00224130000000","REF_FRAME":"TEME","TLE_LINE1":"1 47637U 21012T   23086.62258974  .00033280  00000-0  22413-2 0  9995","APOAPSIS":"548.042","PERIOD":"95.591","MEAN_ELEMENT_THEORY":"SGP4","EPHEMERIS_TYPE":"0","OBJECT_NAME":"STARLINK-2014","GP_ID":"228991419","DECAY_DATE":null,"TLE_LINE2":"2 47637  53.0529 211.2508 0001292  67.9656 292.1470 15.06421760117786"},{"OBJECT_NAME":"STARLINK-2015","GP_ID":"228991671","EPHEMERIS_TYPE":"0","MEAN_ELEMENT_THEORY":"SGP4","DECAY_DATE":null,"TLE_LINE2":"2 47638  53.0545 135.3666 0001568  79.0836 281.0330 15.06384243118839","TLE_LINE1":"1 47638U 21012U   23086.81928842  .00017801  00000-0  12114-2 0  9993","REF_FRAME":"TEME","BSTAR":"0.00121140000000","OBJECT_TYPE":"PAYLOAD","OBJECT_ID":"2021-012U","PERIOD":"95.593","APOAPSIS":"548.348","COUNTRY_CODE":"US","MEAN_ANOMALY":"281.0330","ECCENTRICITY":"0.00015680","ELEMENT_SET_NO":"999","MEAN_MOTION_DOT":"0.00017801","ARG_OF_PERICENTER":"79.0836","SEMIMAJOR_AXIS":"6925.397","SITE":"AFETR","RA_OF_ASC_NODE":"135.3666","CENTER_NAME":"EARTH","RCS_SIZE":"LARGE","INCLINATION":"53.0545","EPOCH":"2023-03-27T19:39:46.519488","PERIAPSIS":"546.176","REV_AT_EPOCH":"11883","MEAN_MOTION_DDOT":"0.0000000000000","CLASSIFICATION_TYPE":"U","MEAN_MOTION":"15.06384243","LAUNCH_DATE":"2021-02-16","NORAD_CAT_ID":"47638","TIME_SYSTEM":"UTC","FILE":"3872915"},{"DECAY_DATE":null,"TLE_LINE2":"2 47639  53.0522 211.0538 0000969  96.1833 263.9266 15.06439796117768","EPHEMERIS_TYPE":"0","OBJECT_NAME":"STARLINK-2016","GP_ID":"228992421","MEAN_ELEMENT_THEORY":"SGP4","PERIOD":"95.590","APOAPSIS":"547.763","TLE_LINE1":"1 47639U 21012V   23086.66683395  .00036202  00000-0  24342-2 0  9990","BSTAR":"0.00243420000000","OBJECT_TYPE":"PAYLOAD","OBJECT_ID":"2021-012V","REF_FRAME":"TEME","SEMIMAJOR_AXIS":"6925.227","RA_OF_ASC_NODE":"211.0538","SITE":"AFETR","RCS_SIZE":"LARGE","INCLINATION":"53.0522","CENTER_NAME":"EARTH","MEAN_ANOMALY":"263.9266","COUNTRY_CODE":"US","ELEMENT_SET_NO":"999","ECCENTRICITY":"0.00009690","MEAN_MOTION_DOT":"0.00036202","ARG_OF_PERICENTER":"96.1833","LAUNCH_DATE":"2021-02-16","MEAN_MOTION":"15.06439796","NORAD_CAT_ID":"47639","TIME_SYSTEM":"UTC","FILE":"3872915","EPOCH":"2023-03-27T16:00:14.453280","PERIAPSIS":"546.421","REV_AT_EPOCH":"11776","MEAN_MOTION_DDOT":"0.0000000000000","CLASSIFICATION_TYPE":"U"},{"MEAN_ELEMENT_THEORY":"SGP4","EPHEMERIS_TYPE":"0","OBJECT_NAME":"STARLINK-2018","GP_ID":"228957465","DECAY_DATE":null,"TLE_LINE2":"2 47640  53.0522 231.3739 0001145  66.1199 293.9909 15.06405387117493","OBJECT_TYPE":"PAYLOAD","BSTAR":"0.00126020000000","OBJECT_ID":"2021-012W","REF_FRAME":"TEME","TLE_LINE1":"1 47640U 21012W   23086.59493713  .00018542  00000-0  12602-2 0  9990","PERIOD":"95.592","APOAPSIS":"547.990","MEAN_MOTION_DOT":"0.00018542","ARG_OF_PERICENTER":"66.1199","MEAN_ANOMALY":"293.9909","COUNTRY_CODE":"US","ELEMENT_SET_NO":"999","ECCENTRICITY":"0.00011450","INCLINATION":"53.0522","RCS_SIZE":"LARGE","CENTER_NAME":"EARTH","SEMIMAJOR_AXIS":"6925.332","RA_OF_ASC_NODE":"231.3739","SITE":"AFETR","MEAN_MOTION_DDOT":"0.0000000000000","CLASSIFICATION_TYPE":"U","PERIAPSIS":"546.404","EPOCH":"2023-03-27T14:16:42.568032","REV_AT_EPOCH":"11749","TIME_SYSTEM":"UTC","NORAD_CAT_ID":"47640","FILE":"3872569","LAUNCH_DATE":"2021-02-16","MEAN_MOTION":"15.06405387"},{"PERIAPSIS":"546.041","EPOCH":"2023-03-27T14:31:55.629408","REV_AT_EPOCH":"11880","MEAN_MOTION_DDOT":"0.0000000000000","CLASSIFICATION_TYPE":"U","MEAN_MOTION":"15.06405816","LAUNCH_DATE":"2021-02-16","NORAD_CAT_ID":"47641","TIME_SYSTEM":"UTC","FILE":"3872915","COUNTRY_CODE":"US","MEAN_ANOMALY":"277.1696","ECCENTRICITY":"0.00016670","ELEMENT_SET_NO":"999","MEAN_MOTION_DOT":"0.00020549","ARG_OF_PERICENTER":"82.9482","SEMIMAJOR_AXIS":"6925.331","SITE":"AFETR","RA_OF_ASC_NODE":"136.3226","CENTER_NAME":"EARTH","INCLINATION":"53.0532","RCS_SIZE":"LARGE","TLE_LINE1":"1 47641U 21012X   23086.60550497  .00020549  00000-0  13942-2 0  9994","REF_FRAME":"TEME","OBJECT_TYPE":"PAYLOAD","BSTAR":"0.00139420000000","OBJECT_ID":"2021-012X","PERIOD":"95.592","APOAPSIS":"548.350","GP_ID":"228990920","OBJECT_NAME":"STARLINK-2019","EPHEMERIS_TYPE":"0","MEAN_ELEMENT_THEORY":"SGP4","DECAY_DATE":null,"TLE_LINE2":"2 47641  53.0532 136.3226 0001667  82.9482 277.1696 15.06405816118800"}];
